[{"OBJECT_NAME":"STARLINK-32510","OBJECT_ID":"2024-216J","EPOCH":"2025-11-01T04:09:28.476864","MEAN_MOTION":15.27567753,"ECCENTRICITY":0.0001257,"INCLINATION":43.0018,"RA_OF_ASC_NODE":269.6489,"ARG_OF_PERICENTER":282.497,"MEAN_ANOMALY":77.5741,"EPHEMERIS_TYPE":0,"CLASSIFICATION_TYPE":"U","NORAD_CAT_ID":62040,"ELEMENT_SET_NO":999,"REV_AT_EPOCH":5413,"BSTAR":0.0012864364,"MEAN_MOTION_DOT":0.00035294,"MEAN_MOTION_DDOT":0},{"OBJECT_NAME":"STARLINK-32456","OBJECT_ID":"2024-216K","EPOCH":"2025-11-01T14:29:15.557856","MEAN_MOTION":15.27607755,"ECCENTRICITY":0.00018581,"INCLINATION":43.0029,"RA_OF_ASC_NODE":259.9397,"ARG_OF_PERICENTER":273.8517,"MEAN_ANOMALY":86.2123,"EPHEMERIS_TYPE":0,"CLASSIFICATION_TYPE":"U","NORAD_CAT_ID":62041,"ELEMENT_SET_NO":999,"REV_AT_EPOCH":5428,"BSTAR":0.0010523634,"MEAN_MOTION_DOT":0.00028835,"MEAN_MOTION_DDOT":0},{"OBJECT_NAME":"STARLINK-32509","OBJECT_ID":"2024-216L","EPOCH":"2025-11-01T14:05:12.531840","MEAN_MOTION":15.27575384,"ECCENTRICITY":0.00012528,"INCLINATION":43.0016,"RA_OF_ASC_NODE":259.8124,"ARG_OF_PERICENTER":281.0183,"MEAN_ANOMALY":79.0528,"EPHEMERIS_TYPE":0,"CLASSIFICATION_TYPE":"U","NORAD_CAT_ID":62042,"ELEMENT_SET_NO":999,"REV_AT_EPOCH":5428,"BSTAR":0.0014656264,"MEAN_MOTION_DOT":0.00040283,"MEAN_MOTION_DDOT":0},{"OBJECT_NAME":"STARLINK-32491","OBJECT_ID":"2024-216M","EPOCH":"2025-11-01T15:03:01.039968","MEAN_MOTION":15.2762743,"ECCENTRICITY":0.00031207,"INCLINATION":43.0039,"RA_OF_ASC_NODE":267.038,"ARG_OF_PERICENTER":277.119,"MEAN_ANOMALY":82.9306,"EPHEMERIS_TYPE":0,"CLASSIFICATION_TYPE":"U","NORAD_CAT_ID":62043,"ELEMENT_SET_NO":999,"REV_AT_EPOCH":5420,"BSTAR":0.0013110939,"MEAN_MOTION_DOT":0.00036048,"MEAN_MOTION_DDOT":0},{"OBJECT_NAME":"STARLINK-32577","OBJECT_ID":"2024-216N","EPOCH":"2025-11-01T14:20:27.886272","MEAN_MOTION":15.27572167,"ECCENTRICITY":0.00011211,"INCLINATION":43.0012,"RA_OF_ASC_NODE":266.8087,"ARG_OF_PERICENTER":293.7697,"MEAN_ANOMALY":66.3037,"EPHEMERIS_TYPE":0,"CLASSIFICATION_TYPE":"U","NORAD_CAT_ID":62044,"ELEMENT_SET_NO":999,"REV_AT_EPOCH":5421,"BSTAR":0.00088264598,"MEAN_MOTION_DOT":0.000241,"MEAN_MOTION_DDOT":0},{"OBJECT_NAME":"STARLINK-32618","OBJECT_ID":"2024-216P","EPOCH":"2025-11-01T14:21:51.994080","MEAN_MOTION":15.27567095,"ECCENTRICITY":0.00016528,"INCLINATION":43.0015,"RA_OF_ASC_NODE":259.8954,"ARG_OF_PERICENTER":260.4011,"MEAN_ANOMALY":99.6654,"EPHEMERIS_TYPE":0,"CLASSIFICATION_TYPE":"U","NORAD_CAT_ID":62045,"ELEMENT_SET_NO":999,"REV_AT_EPOCH":5428,"BSTAR":0.00093121551,"MEAN_MOTION_DOT":0.00025441,"MEAN_MOTION_DDOT":0},{"OBJECT_NAME":"STARLINK-32598","OBJECT_ID":"2024-216Q","EPOCH":"2025-11-01T03:44:45.215232","MEAN_MOTION":15.2762523,"ECCENTRICITY":9.79e-5,"INCLINATION":43.002,"RA_OF_ASC_NODE":261.7347,"ARG_OF_PERICENTER":265.894,"MEAN_ANOMALY":94.18,"EPHEMERIS_TYPE":0,"CLASSIFICATION_TYPE":"U","NORAD_CAT_ID":62046,"ELEMENT_SET_NO":999,"REV_AT_EPOCH":5422,"BSTAR":0.0012628667,"MEAN_MOTION_DOT":0.00034701,"MEAN_MOTION_DDOT":0},{"OBJECT_NAME":"STARLINK-32630","OBJECT_ID":"2024-216R","EPOCH":"2025-11-01T14:37:05.924640","MEAN_MOTION":15.27593462,"ECCENTRICITY":0.00011241,"INCLINATION":43.0022,"RA_OF_ASC_NODE":266.8982,"ARG_OF_PERICENTER":270.6343,"MEAN_ANOMALY":89.438,"EPHEMERIS_TYPE":0,"CLASSIFICATION_TYPE":"U","NORAD_CAT_ID":62047,"ELEMENT_SET_NO":999,"REV_AT_EPOCH":5420,"BSTAR":0.0012256638,"MEAN_MOTION_DOT":0.00033633,"MEAN_MOTION_DDOT":0},{"OBJECT_NAME":"STARLINK-32599","OBJECT_ID":"2024-216S","EPOCH":"2025-11-01T14:42:40.156128","MEAN_MOTION":15.27579197,"ECCENTRICITY":0.00014045,"INCLINATION":43.0029,"RA_OF_ASC_NODE":266.9287,"ARG_OF_PERICENTER":283.0398,"MEAN_ANOMALY":77.0296,"EPHEMERIS_TYPE":0,"CLASSIFICATION_TYPE":"U","NORAD_CAT_ID":62048,"ELEMENT_SET_NO":999,"REV_AT_EPOCH":5420,"BSTAR":0.0011046224,"MEAN_MOTION_DOT":0.00030259,"MEAN_MOTION_DDOT":0},{"OBJECT_NAME":"STARLINK-32473","OBJECT_ID":"2024-216T","EPOCH":"2025-11-01T14:08:54.440736","MEAN_MOTION":15.27577384,"ECCENTRICITY":0.00021421,"INCLINATION":43.0049,"RA_OF_ASC_NODE":259.8295,"ARG_OF_PERICENTER":268.539,"MEAN_ANOMALY":91.5217,"EPHEMERIS_TYPE":0,"CLASSIFICATION_TYPE":"U","NORAD_CAT_ID":62049,"ELEMENT_SET_NO":999,"REV_AT_EPOCH":5312,"BSTAR":0.0011296927,"MEAN_MOTION_DOT":0.00030953,"MEAN_MOTION_DDOT":0},{"OBJECT_NAME":"STARLINK-32492","OBJECT_ID":"2024-216U","EPOCH":"2025-11-01T14:05:38.827680","MEAN_MOTION":15.27543597,"ECCENTRICITY":0.0001683,"INCLINATION":42.9992,"RA_OF_ASC_NODE":266.731,"ARG_OF_PERICENTER":275.6381,"MEAN_ANOMALY":84.4278,"EPHEMERIS_TYPE":0,"CLASSIFICATION_TYPE":"U","NORAD_CAT_ID":62050,"ELEMENT_SET_NO":999,"REV_AT_EPOCH":5420,"BSTAR":0.00083715314,"MEAN_MOTION_DOT":0.00022821,"MEAN_MOTION_DDOT":0},{"OBJECT_NAME":"STARLINK-32496","OBJECT_ID":"2024-216V","EPOCH":"2025-11-01T14:57:28.215936","MEAN_MOTION":15.27582246,"ECCENTRICITY":0.00012311,"INCLINATION":43.0016,"RA_OF_ASC_NODE":267.0049,"ARG_OF_PERICENTER":270.3847,"MEAN_ANOMALY":89.6864,"EPHEMERIS_TYPE":0,"CLASSIFICATION_TYPE":"U","NORAD_CAT_ID":62051,"ELEMENT_SET_NO":999,"REV_AT_EPOCH":5420,"BSTAR":0.00086221801,"MEAN_MOTION_DOT":0.00023542,"MEAN_MOTION_DDOT":0},{"OBJECT_NAME":"STARLINK-32495","OBJECT_ID":"2024-216W","EPOCH":"2025-11-01T04:14:48.661440","MEAN_MOTION":15.2761245,"ECCENTRICITY":0.00012586,"INCLINATION":43.0027,"RA_OF_ASC_NODE":268.8116,"ARG_OF_PERICENTER":271.2041,"MEAN_ANOMALY":88.8666,"EPHEMERIS_TYPE":0,"CLASSIFICATION_TYPE":"U","NORAD_CAT_ID":62052,"ELEMENT_SET_NO":999,"REV_AT_EPOCH":5414,"BSTAR":0.0014668348,"MEAN_MOTION_DOT":0.00040363,"MEAN_MOTION_DDOT":0},{"OBJECT_NAME":"STARLINK-32494","OBJECT_ID":"2024-216X","EPOCH":"2025-11-01T14:16:44.532768","MEAN_MOTION":15.27635837,"ECCENTRICITY":1.941e-5,"INCLINATION":43.005,"RA_OF_ASC_NODE":266.7877,"ARG_OF_PERICENTER":326.6215,"MEAN_ANOMALY":33.4625,"EPHEMERIS_TYPE":0,"CLASSIFICATION_TYPE":"U","NORAD_CAT_ID":62053,"ELEMENT_SET_NO":999,"REV_AT_EPOCH":5420,"BSTAR":0.0020268204,"MEAN_MOTION_DOT":0.00056032,"MEAN_MOTION_DDOT":0},{"OBJECT_NAME":"STARLINK-32408","OBJECT_ID":"2024-216Y","EPOCH":"2025-11-01T04:38:24.619200","MEAN_MOTION":15.27555689,"ECCENTRICITY":0.00012671,"INCLINATION":43.0016,"RA_OF_ASC_NODE":262.0145,"ARG_OF_PERICENTER":272.5976,"MEAN_ANOMALY":87.473,"EPHEMERIS_TYPE":0,"CLASSIFICATION_TYPE":"U","NORAD_CAT_ID":62054,"ELEMENT_SET_NO":999,"REV_AT_EPOCH":5423,"BSTAR":0.0014383414,"MEAN_MOTION_DOT":0.00039501,"MEAN_MOTION_DDOT":0},{"OBJECT_NAME":"STARLINK-32571","OBJECT_ID":"2024-216Z","EPOCH":"2025-11-01T03:39:09.964224","MEAN_MOTION":15.27682999,"ECCENTRICITY":0.00015037,"INCLINATION":42.9976,"RA_OF_ASC_NODE":261.6999,"ARG_OF_PERICENTER":252.9821,"MEAN_ANOMALY":107.0866,"EPHEMERIS_TYPE":0,"CLASSIFICATION_TYPE":"U","NORAD_CAT_ID":62055,"ELEMENT_SET_NO":999,"REV_AT_EPOCH":5432,"BSTAR":0.0026654537,"MEAN_MOTION_DOT":0.00074058,"MEAN_MOTION_DDOT":0}]
