STARLINK-32510          
1 62040U 24216J   25305.17324626  .00035294  00000+0  12864-2 0  9998
2 62040  43.0018 269.6489 0001257 282.4970  77.5741 15.27567753 54133
STARLINK-32456          
1 62041U 24216K   25305.60365229  .00028835  00000+0  10524-2 0  9995
2 62041  43.0029 259.9397 0001858 273.8517  86.2123 15.27607755 54288
STARLINK-32509          
1 62042U 24216L   25305.58695060  .00040283  00000+0  14656-2 0  9993
2 62042  43.0016 259.8124 0001252 281.0183  79.0528 15.27575384 54281
STARLINK-32491          
1 62043U 24216M   25305.62709537  .00036048  00000+0  13111-2 0  9993
2 62043  43.0039 267.0380 0003120 277.1190  82.9306 15.27627430 54201
STARLINK-32577          
1 62044U 24216N   25305.59754498  .00024100  00000+0  88265-3 0  9995
2 62044  43.0012 266.8087 0001121 293.7697  66.3037 15.27572167 54213
STARLINK-32618          
1 62045U 24216P   25305.59851845  .00025441  00000+0  93122-3 0  9997
2 62045  43.0015 259.8954 0001652 260.4011  99.6654 15.27567095 54287
STARLINK-32598          
1 62046U 24216Q   25305.15607888  .00034701  00000+0  12629-2 0  9997
2 62046  43.0020 261.7347 0000979 265.8940  94.1800 15.27625230 54226
STARLINK-32630          
1 62047U 24216R   25305.60909635  .00033633  00000+0  12257-2 0  9993
2 62047  43.0022 266.8982 0001124 270.6343  89.4380 15.27593462 54203
STARLINK-32599          
1 62048U 24216S   25305.61296477  .00030259  00000+0  11046-2 0  9994
2 62048  43.0029 266.9287 0001404 283.0398  77.0296 15.27579197 54207
STARLINK-32473          
1 62049U 24216T   25305.58951899  .00030953  00000+0  11297-2 0  9996
2 62049  43.0049 259.8295 0002142 268.5390  91.5217 15.27577384 53120
STARLINK-32492          
1 62050U 24216U   25305.58725495  .00022821  00000+0  83715-3 0  9999
2 62050  42.9992 266.7310 0001683 275.6381  84.4278 15.27543597 54207
STARLINK-32496          
1 62051U 24216V   25305.62324324  .00023542  00000+0  86222-3 0  9998
2 62051  43.0016 267.0049 0001231 270.3847  89.6864 15.27582246 54200
STARLINK-32495          
1 62052U 24216W   25305.17695210  .00040363  00000+0  14668-2 0  9998
2 62052  43.0027 268.8116 0001258 271.2041  88.8666 15.27612450 54147
STARLINK-32494          
1 62053U 24216X   25305.59495987  .00056032  00000+0  20268-2 0  9997
2 62053  43.0050 266.7877 0000194 326.6215  33.4625 15.27635837 54203
STARLINK-32408          
1 62054U 24216Y   25305.19334050  .00039501  00000+0  14383-2 0  9990
2 62054  43.0016 262.0145 0001267 272.5976  87.4730 15.27555689 54233
STARLINK-32571          
1 62055U 24216Z   25305.15219866  .00074058  00000+0  26655-2 0  9995
2 62055  42.9976 261.6999 0001503 252.9821 107.0866 15.27682999 54327
